{
    "links": {
        "self": "http://www.neowsapp.com/rest/v1/neo/3675020?api_key=iIulBulltgU6a56xZRHN4H3l9WmuAYTsLGpBGhQ2"
    },
    "id": "3675020",
    "neo_reference_id": "3675020",
    "name": "(2014 OZ111)",
    "designation": "2014 OZ111",
    "nasa_jpl_url": "http://ssd.jpl.nasa.gov/sbdb.cgi?sstr=3675020",
    "absolute_magnitude_h": 22.9,
    "estimated_diameter": {
        "kilometers": {
            "estimated_diameter_min": 0.0699125232,
            "estimated_diameter_max": 0.1563291544
        },
        "meters": {
            "estimated_diameter_min": 69.9125232246,
            "estimated_diameter_max": 156.3291544087
        },
        "miles": {
            "estimated_diameter_min": 0.0434416145,
            "estimated_diameter_max": 0.097138403
        },
        "feet": {
            "estimated_diameter_min": 229.3718026961,
            "estimated_diameter_max": 512.8909429502
        }
    },
    "is_potentially_hazardous_asteroid": false,
    "close_approach_data": [
        {
            "close_approach_date": "2014-09-01",
            "close_approach_date_full": "2014-Sep-01 03:25",
            "epoch_date_close_approach": 1409541900000,
            "relative_velocity": {
                "kilometers_per_second": "7.9810509871",
                "kilometers_per_hour": "28731.7835534895",
                "miles_per_hour": "17852.8129530002"
            },
            "miss_distance": {
                "astronomical": "0.1141755129",
                "lunar": "44.4142745181",
                "kilometers": "17080413.535997523",
                "miles": "10613276.8270828974"
            },
            "orbiting_body": "Earth"
        },
        {
            "close_approach_date": "2155-07-21",
            "close_approach_date_full": "2155-Jul-21 09:02",
            "epoch_date_close_approach": 5855446920000,
            "relative_velocity": {
                "kilometers_per_second": "14.0527763529",
                "kilometers_per_hour": "50589.9948705491",
                "miles_per_hour": "31434.6554238698"
            },
            "miss_distance": {
                "astronomical": "0.1464724292",
                "lunar": "56.9777749588",
                "kilometers": "21911963.422045804",
                "miles": "13615462.7130639352"
            },
            "orbiting_body": "Earth"
        }
    ],
    "orbital_data": {
        "orbit_id": "4",
        "orbit_determination_date": "2019-07-17 06:10:07",
        "first_observation_date": "2014-07-27",
        "last_observation_date": "2014-07-30",
        "data_arc_in_days": 3,
        "observations_used": 17,
        "orbit_uncertainty": "9",
        "minimum_orbit_intersection": ".0312273",
        "jupiter_tisserand_invariant": "4.534",
        "epoch_osculation": "2456867.5",
        "eccentricity": ".4050128085236461",
        "semi_major_axis": "1.458678000945537",
        "inclination": "3.153404382640225",
        "ascending_node_longitude": "161.7030590347444",
        "orbital_period": "643.4837390169728",
        "perihelion_distance": ".8678947270509275",
        "perihelion_argument": "205.5910245166146",
        "aphelion_distance": "2.049461274840147",
        "perihelion_time": "2456924.432499168588",
        "mean_anomaly": "328.1488459490799",
        "mean_motion": ".559454696632986",
        "equinox": "J2000",
        "orbit_class": {
            "orbit_class_type": "APO",
            "orbit_class_description": "Near-Earth asteroid orbits which cross the Earth’s orbit similar to that of 1862 Apollo",
            "orbit_class_range": "a (semi-major axis) > 1.0 AU; q (perihelion) < 1.017 AU"
        }
    },
    "is_sentry_object": false
}